{
  "generated_at": "2026-07-02T08:55:37+00:00",
  "source": "celestrak.org",
  "satellite_count": 9,
  "satellites": [
    {
      "id": "terra",
      "name": "TERRA",
      "platform": "EOS",
      "sensor": "MODIS",
      "swath_km": 2330,
      "color": "#39d0d8",
      "norad": 25994,
      "tle1": "1 25994U 99068A   26182.89947714  .00000448  00000+0  10011-3 0  9990",
      "tle2": "2 25994  97.9448 231.8619 0002699 150.2199  23.0372 14.61114918411756"
    },
    {
      "id": "aqua",
      "name": "AQUA",
      "platform": "EOS",
      "sensor": "MODIS",
      "swath_km": 2330,
      "color": "#2bb673",
      "norad": 27424,
      "tle1": "1 27424U 02022A   26182.90238214  .00000822  00000+0  17321-3 0  9991",
      "tle2": "2 27424  98.4284 152.4798 0000699  79.7486 333.3720 14.62180459285429"
    },
    {
      "id": "snpp",
      "name": "SUOMI NPP",
      "platform": "JPSS",
      "sensor": "VIIRS",
      "swath_km": 3000,
      "color": "#ff8c42",
      "norad": 37849,
      "tle1": "1 37849U 11061A   26182.93114481  .00000078  00000+0  58134-4 0  9999",
      "tle2": "2 37849  98.7955 123.7066 0000725 314.4599  45.6517 14.19520364760534"
    },
    {
      "id": "noaa20",
      "name": "NOAA 20",
      "platform": "JPSS",
      "sensor": "VIIRS",
      "swath_km": 3000,
      "color": "#ffaa00",
      "norad": 43013,
      "tle1": "1 43013U 17073A   26182.87394754  .00000069  00000+0  53704-4 0  9992",
      "tle2": "2 43013  98.7773 122.2061 0000856 132.7225 227.4023 14.19514403446555"
    },
    {
      "id": "noaa21",
      "name": "NOAA 21",
      "platform": "JPSS",
      "sensor": "VIIRS",
      "swath_km": 3000,
      "color": "#ff5a3a",
      "norad": 54234,
      "tle1": "1 54234U 22150A   26182.90646019  .00000056  00000+0  47273-4 0  9999",
      "tle2": "2 54234  98.7061 121.4484 0002419 128.2993 231.8401 14.19539128188633"
    },
    {
      "id": "sentinel2a",
      "name": "SENTINEL-2A",
      "platform": "Copernicus",
      "sensor": "MSI",
      "swath_km": 290,
      "color": "#b388ff",
      "norad": 40697,
      "tle1": "1 40697U 15028A   26182.96993940  .00000009  00000+0  20006-4 0  9990",
      "tle2": "2 40697  98.5687 257.6115 0001214  96.2489 263.8832 14.30818854575847"
    },
    {
      "id": "sentinel2b",
      "name": "SENTINEL-2B",
      "platform": "Copernicus",
      "sensor": "MSI",
      "swath_km": 290,
      "color": "#9d6dff",
      "norad": 42063,
      "tle1": "1 42063U 17013A   26182.96272281  .00000058  00000+0  38836-4 0  9997",
      "tle2": "2 42063  98.5694 257.5285 0001218  91.1545 268.9778 14.30820628486750"
    },
    {
      "id": "sentinel3a",
      "name": "SENTINEL-3A",
      "platform": "Copernicus",
      "sensor": "OLCI",
      "swath_km": 1270,
      "color": "#7a4fff",
      "norad": 41335,
      "tle1": "1 41335U 16011A   26182.94384544  .00000124  00000+0  69261-4 0  9999",
      "tle2": "2 41335  98.6244 250.1152 0001437  94.9494 265.1850 14.26736714540165"
    },
    {
      "id": "sentinel3b",
      "name": "SENTINEL-3B",
      "platform": "Copernicus",
      "sensor": "OLCI",
      "swath_km": 1270,
      "color": "#5e3bff",
      "norad": 43437,
      "tle1": "1 43437U 18039A   26182.91698316  .00000127  00000+0  70487-4 0  9993",
      "tle2": "2 43437  98.6244 250.2376 0000825 117.4742 242.6522 14.26738948426223"
    }
  ]
}